CCSDS_OMM_VERS = 2.0
CREATION_DATE  = 
ORIGINATOR     = 

OBJECT_NAME    = STARLINK-36535
OBJECT_ID      = 2026-039A
CENTER_NAME    = EARTH
REF_FRAME      = TEME
TIME_SYSTEM    = UTC
MEAN_ELEMENT_THEORY = SGP/SGP4

EPOCH          = 2026-03-28T12:00:00.998784
MEAN_MOTION    = 15.28390522
ECCENTRICITY   = .000172
INCLINATION    = 42.9991
RA_OF_ASC_NODE = 303.2442
ARG_OF_PERICENTER = 252.5452
MEAN_ANOMALY   = 119.0501

EPHEMERIS_TYPE = 0
CLASSIFICATION_TYPE = U
NORAD_CAT_ID   = 67986
ELEMENT_SET_NO = 999
REV_AT_EPOCH   = 590
BSTAR          = .21948E-2
MEAN_MOTION_DOT = .6217E-3
MEAN_MOTION_DDOT = 0

CCSDS_OMM_VERS = 2.0
CREATION_DATE  = 
ORIGINATOR     = 

OBJECT_NAME    = STARLINK-36744
OBJECT_ID      = 2026-039B
CENTER_NAME    = EARTH
REF_FRAME      = TEME
TIME_SYSTEM    = UTC
MEAN_ELEMENT_THEORY = SGP/SGP4

EPOCH          = 2026-03-28T12:00:00.998784
MEAN_MOTION    = 15.27545777
ECCENTRICITY   = .0001913
INCLINATION    = 42.9995
RA_OF_ASC_NODE = 303.0334
ARG_OF_PERICENTER = 255.3259
MEAN_ANOMALY   = 202.3128

EPHEMERIS_TYPE = 0
CLASSIFICATION_TYPE = U
NORAD_CAT_ID   = 67987
ELEMENT_SET_NO = 999
REV_AT_EPOCH   = 590
BSTAR          = .17172E-2
MEAN_MOTION_DOT = .47245E-3
MEAN_MOTION_DDOT = 0

CCSDS_OMM_VERS = 2.0
CREATION_DATE  = 
ORIGINATOR     = 

OBJECT_NAME    = STARLINK-36734
OBJECT_ID      = 2026-039C
CENTER_NAME    = EARTH
REF_FRAME      = TEME
TIME_SYSTEM    = UTC
MEAN_ELEMENT_THEORY = SGP/SGP4

EPOCH          = 2026-03-28T12:00:00.998784
MEAN_MOTION    = 15.47124146
ECCENTRICITY   = .0001456
INCLINATION    = 42.9996
RA_OF_ASC_NODE = 303.6255
ARG_OF_PERICENTER = 255.7165
MEAN_ANOMALY   = 327.5264

EPHEMERIS_TYPE = 0
CLASSIFICATION_TYPE = U
NORAD_CAT_ID   = 67988
ELEMENT_SET_NO = 999
REV_AT_EPOCH   = 590
BSTAR          = -.39721E-1
MEAN_MOTION_DOT = -.1857214E-1
MEAN_MOTION_DDOT = 0

CCSDS_OMM_VERS = 2.0
CREATION_DATE  = 
ORIGINATOR     = 

OBJECT_NAME    = STARLINK-36957
OBJECT_ID      = 2026-039D
CENTER_NAME    = EARTH
REF_FRAME      = TEME
TIME_SYSTEM    = UTC
MEAN_ELEMENT_THEORY = SGP/SGP4

EPOCH          = 2026-03-28T12:00:00.998784
MEAN_MOTION    = 15.28742133
ECCENTRICITY   = .0001831
INCLINATION    = 42.9997
RA_OF_ASC_NODE = 302.9651
ARG_OF_PERICENTER = 246.1741
MEAN_ANOMALY   = 240.2031

EPHEMERIS_TYPE = 0
CLASSIFICATION_TYPE = U
NORAD_CAT_ID   = 67989
ELEMENT_SET_NO = 999
REV_AT_EPOCH   = 590
BSTAR          = -.19173E-1
MEAN_MOTION_DOT = -.510944E-2
MEAN_MOTION_DDOT = 0

CCSDS_OMM_VERS = 2.0
CREATION_DATE  = 
ORIGINATOR     = 

OBJECT_NAME    = STARLINK-36951
OBJECT_ID      = 2026-039E
CENTER_NAME    = EARTH
REF_FRAME      = TEME
TIME_SYSTEM    = UTC
MEAN_ELEMENT_THEORY = SGP/SGP4

EPOCH          = 2026-03-28T12:00:00.998784
MEAN_MOTION    = 15.36220346
ECCENTRICITY   = .0001607
INCLINATION    = 42.9987
RA_OF_ASC_NODE = 302.9636
ARG_OF_PERICENTER = 276.3825
MEAN_ANOMALY   = 213.3610

EPHEMERIS_TYPE = 0
CLASSIFICATION_TYPE = U
NORAD_CAT_ID   = 67990
ELEMENT_SET_NO = 999
REV_AT_EPOCH   = 590
BSTAR          = -.63226E-1
MEAN_MOTION_DOT = -.2059931E-1
MEAN_MOTION_DDOT = 0

CCSDS_OMM_VERS = 2.0
CREATION_DATE  = 
ORIGINATOR     = 

OBJECT_NAME    = STARLINK-36941
OBJECT_ID      = 2026-039F
CENTER_NAME    = EARTH
REF_FRAME      = TEME
TIME_SYSTEM    = UTC
MEAN_ELEMENT_THEORY = SGP/SGP4

EPOCH          = 2026-03-27T22:38:16.232352
MEAN_MOTION    = 15.50639169
ECCENTRICITY   = .00022364
INCLINATION    = 42.9994
RA_OF_ASC_NODE = 306.8591
ARG_OF_PERICENTER = 261.8179
MEAN_ANOMALY   = 98.2427

EPHEMERIS_TYPE = 0
CLASSIFICATION_TYPE = U
NORAD_CAT_ID   = 67991
ELEMENT_SET_NO = 999
REV_AT_EPOCH   = 448
BSTAR          = .12143963E-2
MEAN_MOTION_DOT = .71713E-3
MEAN_MOTION_DDOT = 0

CCSDS_OMM_VERS = 2.0
CREATION_DATE  = 
ORIGINATOR     = 

OBJECT_NAME    = STARLINK-36950
OBJECT_ID      = 2026-039G
CENTER_NAME    = EARTH
REF_FRAME      = TEME
TIME_SYSTEM    = UTC
MEAN_ELEMENT_THEORY = SGP/SGP4

EPOCH          = 2026-03-28T07:15:58.851936
MEAN_MOTION    = 15.49089084
ECCENTRICITY   = .0002814
INCLINATION    = 42.9996
RA_OF_ASC_NODE = 304.3842
ARG_OF_PERICENTER = 322.3667
MEAN_ANOMALY   = 37.6995

EPHEMERIS_TYPE = 0
CLASSIFICATION_TYPE = U
NORAD_CAT_ID   = 67992
ELEMENT_SET_NO = 999
REV_AT_EPOCH   = 454
BSTAR          = -.16885E-2
MEAN_MOTION_DOT = -.93198E-3
MEAN_MOTION_DDOT = 0

CCSDS_OMM_VERS = 2.0
CREATION_DATE  = 
ORIGINATOR     = 

OBJECT_NAME    = STARLINK-36975
OBJECT_ID      = 2026-039H
CENTER_NAME    = EARTH
REF_FRAME      = TEME
TIME_SYSTEM    = UTC
MEAN_ELEMENT_THEORY = SGP/SGP4

EPOCH          = 2026-03-28T12:00:00.998784
MEAN_MOTION    = 15.46816166
ECCENTRICITY   = .0001736
INCLINATION    = 42.9997
RA_OF_ASC_NODE = 303.1432
ARG_OF_PERICENTER = 262.4492
MEAN_ANOMALY   = 155.3317

EPHEMERIS_TYPE = 0
CLASSIFICATION_TYPE = U
NORAD_CAT_ID   = 67993
ELEMENT_SET_NO = 999
REV_AT_EPOCH   = 590
BSTAR          = -.39398E-1
MEAN_MOTION_DOT = -.1825915E-1
MEAN_MOTION_DDOT = 0

CCSDS_OMM_VERS = 2.0
CREATION_DATE  = 
ORIGINATOR     = 

OBJECT_NAME    = STARLINK-36993
OBJECT_ID      = 2026-039J
CENTER_NAME    = EARTH
REF_FRAME      = TEME
TIME_SYSTEM    = UTC
MEAN_ELEMENT_THEORY = SGP/SGP4

EPOCH          = 2026-03-28T12:00:00.998784
MEAN_MOTION    = 15.33375288
ECCENTRICITY   = .0001142
INCLINATION    = 42.9995
RA_OF_ASC_NODE = 302.7294
ARG_OF_PERICENTER = 259.0097
MEAN_ANOMALY   = 324.3651

EPHEMERIS_TYPE = 0
CLASSIFICATION_TYPE = U
NORAD_CAT_ID   = 67994
ELEMENT_SET_NO = 999
REV_AT_EPOCH   = 590
BSTAR          = -.62524E-1
MEAN_MOTION_DOT = -.1847629E-1
MEAN_MOTION_DDOT = 0

CCSDS_OMM_VERS = 2.0
CREATION_DATE  = 
ORIGINATOR     = 

OBJECT_NAME    = STARLINK-36968
OBJECT_ID      = 2026-039K
CENTER_NAME    = EARTH
REF_FRAME      = TEME
TIME_SYSTEM    = UTC
MEAN_ELEMENT_THEORY = SGP/SGP4

EPOCH          = 2026-03-28T07:26:15.043776
MEAN_MOTION    = 15.50609068
ECCENTRICITY   = .0001061
INCLINATION    = 42.9991
RA_OF_ASC_NODE = 304.4411
ARG_OF_PERICENTER = 282.6825
MEAN_ANOMALY   = 77.3916

EPHEMERIS_TYPE = 0
CLASSIFICATION_TYPE = U
NORAD_CAT_ID   = 67995
ELEMENT_SET_NO = 999
REV_AT_EPOCH   = 454
BSTAR          = .15598E-2
MEAN_MOTION_DOT = .92351E-3
MEAN_MOTION_DDOT = 0

CCSDS_OMM_VERS = 2.0
CREATION_DATE  = 
ORIGINATOR     = 

OBJECT_NAME    = STARLINK-36979
OBJECT_ID      = 2026-039L
CENTER_NAME    = EARTH
REF_FRAME      = TEME
TIME_SYSTEM    = UTC
MEAN_ELEMENT_THEORY = SGP/SGP4

EPOCH          = 2026-03-28T12:00:00.998784
MEAN_MOTION    = 15.32108329
ECCENTRICITY   = .0001316
INCLINATION    = 42.9993
RA_OF_ASC_NODE = 302.6595
ARG_OF_PERICENTER = 250.8622
MEAN_ANOMALY   = 0.5122

EPHEMERIS_TYPE = 0
CLASSIFICATION_TYPE = U
NORAD_CAT_ID   = 67996
ELEMENT_SET_NO = 999
REV_AT_EPOCH   = 590
BSTAR          = -.63528E-1
MEAN_MOTION_DOT = -.180775E-1
MEAN_MOTION_DDOT = 0

CCSDS_OMM_VERS = 2.0
CREATION_DATE  = 
ORIGINATOR     = 

OBJECT_NAME    = STARLINK-36994
OBJECT_ID      = 2026-039M
CENTER_NAME    = EARTH
REF_FRAME      = TEME
TIME_SYSTEM    = UTC
MEAN_ELEMENT_THEORY = SGP/SGP4

EPOCH          = 2026-03-28T12:00:00.998784
MEAN_MOTION    = 15.45648663
ECCENTRICITY   = .0001185
INCLINATION    = 43.0003
RA_OF_ASC_NODE = 302.6912
ARG_OF_PERICENTER = 255.9724
MEAN_ANOMALY   = 343.8765

EPHEMERIS_TYPE = 0
CLASSIFICATION_TYPE = U
NORAD_CAT_ID   = 67997
ELEMENT_SET_NO = 999
REV_AT_EPOCH   = 590
BSTAR          = -.42492E-1
MEAN_MOTION_DOT = -.1884089E-1
MEAN_MOTION_DDOT = 0

