STARLINK-36535          
1 67986U 26039A   26087.50001156  .00062170  00000+0  21948-2 0  9998
2 67986  42.9991 303.2442 0001720 252.5452 119.0501 15.28390522  5903
STARLINK-36744          
1 67987U 26039B   26087.50001156  .00047245  00000+0  17172-2 0  9999
2 67987  42.9995 303.0334 0001913 255.3259 202.3128 15.27545777  5900
STARLINK-36734          
1 67988U 26039C   26087.50001156 -.01857214  00000+0 -39721-1 0  9991
2 67988  42.9996 303.6255 0001456 255.7165 327.5264 15.47124146  5908
STARLINK-36957          
1 67989U 26039D   26087.50001156 -.00510944  00000+0 -19173-1 0  9996
2 67989  42.9997 302.9651 0001831 246.1741 240.2031 15.28742133  5907
STARLINK-36951          
1 67990U 26039E   26087.50001156 -.02059931  00000+0 -63226-1 0  9992
2 67990  42.9987 302.9636 0001607 276.3825 213.3610 15.36220346  5900
STARLINK-36941          
1 67991U 26039F   26086.94324343  .00071713  00000+0  12144-2 0  9998
2 67991  42.9994 306.8591 0002236 261.8179  98.2427 15.50639169  4483
STARLINK-36950          
1 67992U 26039G   26087.30276449 -.00093198  00000+0 -16885-2 0  9992
2 67992  42.9996 304.3842 0002814 322.3667  37.6995 15.49089084  4542
STARLINK-36975          
1 67993U 26039H   26087.50001156 -.01825915  00000+0 -39398-1 0  9990
2 67993  42.9997 303.1432 0001736 262.4492 155.3317 15.46816166  5901
STARLINK-36993          
1 67994U 26039J   26087.50001156 -.01847629  00000+0 -62524-1 0  9994
2 67994  42.9995 302.7294 0001142 259.0097 324.3651 15.33375288  5905
STARLINK-36968          
1 67995U 26039K   26087.30989634  .00092351  00000+0  15598-2 0  9990
2 67995  42.9991 304.4411 0001061 282.6825  77.3916 15.50609068  4546
STARLINK-36979          
1 67996U 26039L   26087.50001156 -.01807750  00000+0 -63528-1 0  9992
2 67996  42.9993 302.6595 0001316 250.8622   0.5122 15.32108329  5909
STARLINK-36994          
1 67997U 26039M   26087.50001156 -.01884089  00000+0 -42492-1 0  9990
2 67997  43.0003 302.6912 0001185 255.9724 343.8765 15.45648663  5900
